{
    "links": {
        "self": "http://www.neowsapp.com/rest/v1/neo/54098018?api_key=iIulBulltgU6a56xZRHN4H3l9WmuAYTsLGpBGhQ2"
    },
    "id": "54098018",
    "neo_reference_id": "54098018",
    "name": "(2020 XK1)",
    "designation": "2020 XK1",
    "nasa_jpl_url": "http://ssd.jpl.nasa.gov/sbdb.cgi?sstr=54098018",
    "absolute_magnitude_h": 30.631,
    "estimated_diameter": {
        "kilometers": {
            "estimated_diameter_min": 0.0019877189,
            "estimated_diameter_max": 0.0044446747
        },
        "meters": {
            "estimated_diameter_min": 1.9877189432,
            "estimated_diameter_max": 4.444674677
        },
        "miles": {
            "estimated_diameter_min": 0.0012351109,
            "estimated_diameter_max": 0.0027617919
        },
        "feet": {
            "estimated_diameter_min": 6.5213878174,
            "estimated_diameter_max": 14.5822664675
        }
    },
    "is_potentially_hazardous_asteroid": false,
    "close_approach_data": [
        {
            "close_approach_date": "2020-12-07",
            "close_approach_date_full": "2020-Dec-07 16:15",
            "epoch_date_close_approach": 1607357700000,
            "relative_velocity": {
                "kilometers_per_second": "8.4931434912",
                "kilometers_per_hour": "30575.3165684491",
                "miles_per_hour": "18998.3126755455"
            },
            "miss_distance": {
                "astronomical": "0.0001390927",
                "lunar": "0.0541070603",
                "kilometers": "20807.971652549",
                "miles": "12929.4740372162"
            },
            "orbiting_body": "Earth"
        },
        {
            "close_approach_date": "2020-12-08",
            "close_approach_date_full": "2020-Dec-08 06:19",
            "epoch_date_close_approach": 1607408340000,
            "relative_velocity": {
                "kilometers_per_second": "6.5127170753",
                "kilometers_per_hour": "23445.7814712197",
                "miles_per_hour": "14568.2968258254"
            },
            "miss_distance": {
                "astronomical": "0.0009360872",
                "lunar": "0.3641379208",
                "kilometers": "140036.651254264",
                "miles": "87014.7401622832"
            },
            "orbiting_body": "Moon"
        }
    ],
    "orbital_data": {
        "orbit_id": "1",
        "orbit_determination_date": "2020-12-07 16:12:01",
        "first_observation_date": "2020-12-07",
        "last_observation_date": "2020-12-07",
        "data_arc_in_days": null,
        "observations_used": 19,
        "orbit_uncertainty": "7",
        "minimum_orbit_intersection": ".00024287",
        "jupiter_tisserand_invariant": "4.059",
        "epoch_osculation": "2459000.5",
        "eccentricity": ".4304852604554291",
        "semi_major_axis": "1.722867553147624",
        "inclination": ".7725282111207291",
        "ascending_node_longitude": "255.1450505411062",
        "orbital_period": "825.9928060203391",
        "perihelion_distance": ".9811984658006616",
        "perihelion_argument": "190.014560154335",
        "aphelion_distance": "2.464536640494587",
        "perihelion_time": "2459198.996700258220",
        "mean_anomaly": "273.4873674781136",
        "mean_motion": ".4358391469951076",
        "equinox": "J2000",
        "orbit_class": {
            "orbit_class_type": "APO",
            "orbit_class_description": "Near-Earth asteroid orbits which cross the Earth’s orbit similar to that of 1862 Apollo",
            "orbit_class_range": "a (semi-major axis) > 1.0 AU; q (perihelion) < 1.017 AU"
        }
    },
    "is_sentry_object": false
}